<?xml version="1.0" encoding="UTF-8"?>
<!-- Created with BasicAirData GPS Logger for Android - ver. 3.3.0 -->
<!-- Track 2 = 812 TrackPoints + 0 Placemarks -->
<kml xmlns="http://www.opengis.net/kml/2.2">
 <Document>
  <name>GPS Logger 20260710-151156</name>
  <description><![CDATA[Osvaldas Aukstadvaris1
812 Trackpoints + 0 Placemarks]]></description>
  <Style id="TrackStyle">
   <LineStyle>
    <color>ff0000ff</color>
    <width>3</width>
   </LineStyle>
   <PolyStyle>
    <color>7f0000ff</color>
   </PolyStyle>
   <BalloonStyle>
    <text><![CDATA[<p style="color:red;font-weight:bold">$[name]</p><p style="font-size:11px">$[description]</p><p style="font-size:7px">Track Stats based on: Total time | Time in Movement</p>]]></text>
   </BalloonStyle>
  </Style>

  <Placemark id="20260710-151156">
   <name>Track 20260710-151156</name>
   <description><![CDATA[<b>Osvaldas Aukstadvaris1</b><br><br>Distance = 1,06 km<br>Duration = 15:34 | 12:58<br>Altitude Gap = 3 m<br>Max Speed = 12 km/h<br>Avg Speed = 4,1 | 4,9 km/h<br>Direction = SSE <br><br><i>812 Trackpoints</i>]]></description>
   <styleUrl>#TrackStyle</styleUrl>
   <LineString>
    <extrude>0</extrude>
    <tessellate>0</tessellate>
    <altitudeMode>clampToGround</altitudeMode>
    <coordinates>
     24.52715574,54.58546192,189.109
     24.52715560,54.58546187,189.060
     24.52715551,54.58546183,189.053
     24.52715546,54.58546182,189.055
     24.52715461,54.58546152,188.821
     24.52715460,54.58546149,188.809
     24.52715460,54.58546148,188.791
     24.52715455,54.58546146,188.779
     24.52715453,54.58546147,188.789
     24.52715451,54.58546148,188.789
     24.52714645,54.58545767,187.521
     24.52714538,54.58545746,187.717
     24.52714580,54.58545781,188.298
     24.52714616,54.58545803,188.656
     24.52714744,54.58546181,188.684
     24.52714925,54.58546861,187.967
     24.52715220,54.58547941,186.478
     24.52715938,54.58549119,186.872
     24.52716713,54.58550280,187.529
     24.52717351,54.58551290,186.689
     24.52717910,54.58552234,185.502
     24.52718504,54.58553217,184.820
     24.52718985,54.58554360,184.895
     24.52719294,54.58555454,184.271
     24.52719366,54.58556518,184.772
     24.52719553,54.58557538,184.418
     24.52719934,54.58558538,184.063
     24.52720364,54.58559587,184.824
     24.52721022,54.58560344,184.971
     24.52721455,54.58561322,185.996
     24.52722039,54.58562383,186.170
     24.52722442,54.58563621,186.187
     24.52722645,54.58564942,186.260
     24.52722842,54.58566259,186.335
     24.52723118,54.58567592,186.073
     24.52723393,54.58568764,185.572
     24.52723757,54.58570030,185.891
     24.52723941,54.58571445,186.112
     24.52724092,54.58572944,186.908
     24.52724309,54.58574477,187.971
     24.52724472,54.58576049,188.525
     24.52724756,54.58577357,187.922
     24.52725106,54.58578634,187.214
     24.52725413,54.58579976,186.316
     24.52725731,54.58581300,186.626
     24.52725959,54.58582546,185.943
     24.52726193,54.58583654,185.495
     24.52726362,54.58584827,186.134
     24.52726411,54.58586297,186.426
     24.52726307,54.58587821,186.854
     24.52726296,54.58589128,186.683
     24.52726392,54.58590410,186.302
     24.52726516,54.58591576,185.622
     24.52726662,54.58592795,185.473
     24.52726906,54.58593901,184.380
     24.52727169,54.58594868,183.349
     24.52727566,54.58595984,183.135
     24.52727938,54.58597178,182.910
     24.52728090,54.58598324,182.902
     24.52728215,54.58599522,183.182
     24.52728418,54.58600842,183.228
     24.52728708,54.58602115,182.753
     24.52729059,54.58603381,183.261
     24.52729349,54.58604766,183.859
     24.52729489,54.58605848,183.545
     24.52729897,54.58606940,184.677
     24.52730433,54.58608294,184.502
     24.52730890,54.58609649,185.554
     24.52731145,54.58610826,184.614
     24.52731224,54.58611872,184.437
     24.52731389,54.58613021,185.602
     24.52731765,54.58614356,185.992
     24.52732268,54.58615686,186.530
     24.52732665,54.58617020,186.318
     24.52733021,54.58618246,186.514
     24.52733288,54.58619569,186.547
     24.52733428,54.58620920,186.241
     24.52733580,54.58622356,186.309
     24.52733661,54.58623755,186.346
     24.52733630,54.58625063,187.628
     24.52733605,54.58626346,187.509
     24.52733443,54.58627578,187.479
     24.52733068,54.58628910,187.783
     24.52732514,54.58630269,187.855
     24.52731919,54.58631587,188.140
     24.52731175,54.58632886,188.155
     24.52730271,54.58634126,187.970
     24.52729253,54.58635294,187.934
     24.52728386,54.58636571,188.323
     24.52727547,54.58637806,187.807
     24.52726365,54.58639097,188.576
     24.52725423,54.58639997,188.911
     24.52724601,54.58640674,189.913
     24.52723593,54.58641555,189.209
     24.52722187,54.58642656,189.289
     24.52720417,54.58643775,189.504
     24.52718712,54.58644911,190.241
     24.52717503,54.58645822,189.871
     24.52716291,54.58646831,190.325
     24.52715061,54.58647862,190.079
     24.52713852,54.58648939,190.812
     24.52712598,54.58649993,191.629
     24.52711299,54.58651047,191.642
     24.52710074,54.58652045,191.459
     24.52708750,54.58653024,192.144
     24.52707356,54.58654061,192.207
     24.52705978,54.58655066,192.198
     24.52704684,54.58656171,193.130
     24.52703221,54.58657470,194.779
     24.52701927,54.58658676,194.774
     24.52700863,54.58659350,194.447
     24.52699551,54.58660043,194.038
     24.52698669,54.58660590,195.255
     24.52697493,54.58661520,195.625
     24.52696425,54.58662639,196.041
     24.52695182,54.58663759,196.092
     24.52693731,54.58664736,196.565
     24.52692695,54.58665537,196.028
     24.52692327,54.58666462,196.657
     24.52691780,54.58667607,198.165
     24.52691387,54.58668437,196.695
     24.52690785,54.58669201,197.499
     24.52689800,54.58670065,197.936
     24.52688297,54.58671366,198.636
     24.52687021,54.58672328,198.600
     24.52685852,54.58673187,197.634
     24.52684844,54.58674051,196.094
     24.52683954,54.58674942,197.483
     24.52683035,54.58675860,197.942
     24.52683136,54.58676485,198.656
     24.52682975,54.58677199,199.204
     24.52682256,54.58678021,200.320
     24.52681114,54.58678634,201.036
     24.52679569,54.58679193,201.276
     24.52677506,54.58679612,200.291
     24.52675797,54.58680168,199.487
     24.52673928,54.58680672,201.071
     24.52671585,54.58681026,200.477
     24.52669642,54.58681027,200.335
     24.52667582,54.58680836,199.889
     24.52665118,54.58680533,199.209
     24.52663205,54.58680188,199.464
     24.52660944,54.58679730,199.405
     24.52659154,54.58679335,199.275
     24.52657632,54.58678960,199.213
     24.52655665,54.58678285,198.349
     24.52653033,54.58677650,197.314
     24.52650346,54.58677241,197.895
     24.52648567,54.58677078,196.895
     24.52646427,54.58676707,196.986
     24.52644490,54.58676297,196.402
     24.52642631,54.58675865,194.931
     24.52640707,54.58675482,194.943
     24.52638763,54.58674899,195.729
     24.52636847,54.58674315,194.128
     24.52634942,54.58673855,194.521
     24.52633078,54.58673522,193.811
     24.52631193,54.58672996,193.492
     24.52629634,54.58672624,192.700
     24.52627838,54.58672099,192.787
     24.52625999,54.58671566,192.793
     24.52624315,54.58670960,192.187
     24.52622614,54.58670180,193.041
     24.52621071,54.58669326,192.554
     24.52619664,54.58668565,192.771
     24.52618217,54.58667920,193.603
     24.52615844,54.58667012,194.194
     24.52613635,54.58666328,193.447
     24.52611267,54.58665546,194.516
     24.52609744,54.58665443,193.811
     24.52607959,54.58665419,194.023
     24.52606092,54.58665450,193.995
     24.52604140,54.58665605,194.122
     24.52601934,54.58665922,193.744
     24.52599510,54.58666439,191.954
     24.52596813,54.58666999,192.078
     24.52594651,54.58667642,192.415
     24.52593144,54.58668382,192.575
     24.52591725,54.58669212,193.567
     24.52590699,54.58670122,193.918
     24.52589971,54.58670844,194.605
     24.52589252,54.58671696,195.459
     24.52587938,54.58672683,195.029
     24.52586681,54.58673411,196.985
     24.52585417,54.58674251,197.139
     24.52584339,54.58675269,197.322
     24.52584156,54.58675454,196.950
     24.52584211,54.58675187,197.025
     24.52584122,54.58675012,196.581
     24.52583881,54.58674887,196.840
     24.52583625,54.58674900,196.126
     24.52583021,54.58675907,196.927
     24.52582291,54.58677433,196.198
     24.52581975,54.58678566,195.795
     24.52581585,54.58679636,195.966
     24.52580946,54.58680921,196.543
     24.52580182,54.58682304,196.830
     24.52579466,54.58683819,198.392
     24.52579746,54.58685228,198.613
     24.52580708,54.58686448,198.230
     24.52581734,54.58687490,198.849
     24.52582938,54.58688351,198.223
     24.52584376,54.58689129,196.666
     24.52585979,54.58689897,197.136
     24.52587364,54.58690550,196.514
     24.52589008,54.58691214,195.635
     24.52590462,54.58691847,196.093
     24.52591872,54.58692594,196.758
     24.52593440,54.58693561,198.263
     24.52595038,54.58694447,198.480
     24.52597003,54.58695287,197.973
     24.52598865,54.58696152,197.632
     24.52600750,54.58696961,198.620
     24.52603086,54.58697753,198.645
     24.52605016,54.58698249,198.005
     24.52606453,54.58698745,197.719
     24.52608449,54.58699462,199.650
     24.52610122,54.58700147,199.003
     24.52611488,54.58700916,198.582
     24.52613254,54.58701976,199.868
     24.52614866,54.58703123,199.539
     24.52616384,54.58704060,198.141
     24.52617788,54.58704986,199.223
     24.52619236,54.58705888,197.673
     24.52620543,54.58706938,196.588
     24.52621912,54.58707985,197.048
     24.52623394,54.58708792,197.655
     24.52625086,54.58709629,199.059
     24.52626266,54.58710460,198.317
     24.52627378,54.58711213,197.280
     24.52628111,54.58712023,197.700
     24.52628948,54.58713039,197.984
     24.52629172,54.58714168,197.527
     24.52628883,54.58715680,197.177
     24.52628099,54.58717157,196.524
     24.52627049,54.58718543,196.448
     24.52625622,54.58719899,196.594
     24.52623918,54.58721126,196.895
     24.52622244,54.58722042,196.231
     24.52620660,54.58722999,196.540
     24.52618884,54.58723863,195.856
     24.52617645,54.58724608,197.669
     24.52616509,54.58725179,197.153
     24.52615105,54.58725850,197.191
     24.52612794,54.58726327,195.476
     24.52610463,54.58726431,196.765
     24.52608321,54.58726204,198.838
     24.52606044,54.58725681,198.747
     24.52603521,54.58724969,199.440
     24.52601294,54.58724226,201.878
     24.52599525,54.58723670,201.497
     24.52597351,54.58723099,201.399
     24.52594772,54.58722378,200.982
     24.52592408,54.58721397,200.824
     24.52590741,54.58720789,201.212
     24.52588851,54.58719922,200.985
     24.52587278,54.58719138,200.294
     24.52585778,54.58718442,199.611
     24.52584217,54.58717823,199.599
     24.52582497,54.58717182,198.751
     24.52580145,54.58716346,198.368
     24.52576915,54.58714925,199.837
     24.52573524,54.58713410,200.286
     24.52570487,54.58712252,200.331
     24.52567144,54.58710904,201.582
     24.52565056,54.58710130,201.398
     24.52563693,54.58709629,201.645
     24.52563367,54.58709672,201.696
     24.52563143,54.58710009,201.062
     24.52562292,54.58710238,201.863
     24.52561166,54.58710265,201.745
     24.52559359,54.58709715,201.158
     24.52557763,54.58709194,199.971
     24.52555849,54.58708657,198.719
     24.52554272,54.58708071,198.304
     24.52551175,54.58706639,196.162
     24.52547804,54.58704727,195.640
     24.52545169,54.58703550,194.615
     24.52542312,54.58702372,195.385
     24.52539347,54.58701203,195.607
     24.52537635,54.58700554,195.020
     24.52535912,54.58699648,195.610
     24.52535176,54.58699231,194.981
     24.52533797,54.58698646,193.649
     24.52532005,54.58697872,193.063
     24.52529535,54.58697113,194.942
     24.52527326,54.58696552,195.173
     24.52525542,54.58696179,194.203
     24.52523757,54.58695664,194.709
     24.52522108,54.58695001,195.344
     24.52520343,54.58694362,194.634
     24.52518476,54.58693551,193.826
     24.52516916,54.58692820,193.900
     24.52515812,54.58692291,194.530
     24.52514818,54.58691855,194.681
     24.52513325,54.58691263,194.766
     24.52511807,54.58690696,194.444
     24.52510190,54.58690430,195.362
     24.52507897,54.58690457,195.101
     24.52505609,54.58690503,194.734
     24.52503194,54.58690694,194.014
     24.52500835,54.58691203,193.852
     24.52498035,54.58691974,192.029
     24.52495718,54.58692799,191.683
     24.52494035,54.58693815,192.770
     24.52492314,54.58694938,194.361
     24.52490721,54.58695925,194.817
     24.52489856,54.58696704,197.626
     24.52489607,54.58697445,196.787
     24.52489533,54.58698541,196.571
     24.52489377,54.58699801,195.721
     24.52489218,54.58701007,195.221
     24.52489367,54.58702347,195.154
     24.52490292,54.58703459,195.531
     24.52491132,54.58704293,194.734
     24.52492330,54.58705131,197.062
     24.52493020,54.58706196,197.476
     24.52493478,54.58707388,198.994
     24.52494535,54.58708699,199.779
     24.52496059,54.58710006,199.956
     24.52497693,54.58711062,200.275
     24.52499257,54.58711824,200.945
     24.52500653,54.58712602,200.763
     24.52502084,54.58713786,200.119
     24.52503830,54.58714863,199.655
     24.52505472,54.58715542,199.081
     24.52507044,54.58716045,199.733
     24.52508583,54.58716564,200.720
     24.52510265,54.58717327,200.679
     24.52512221,54.58718115,200.308
     24.52514269,54.58718853,201.776
     24.52516347,54.58719544,202.027
     24.52518467,54.58720410,201.597
     24.52520602,54.58721327,201.317
     24.52522542,54.58721976,199.507
     24.52524309,54.58722520,199.119
     24.52526304,54.58723128,198.896
     24.52529057,54.58724093,198.151
     24.52531904,54.58724988,197.526
     24.52534255,54.58725697,196.728
     24.52536633,54.58726433,195.804
     24.52539203,54.58727045,195.361
     24.52541683,54.58727721,195.171
     24.52544381,54.58728627,194.139
     24.52546827,54.58729597,193.237
     24.52548825,54.58730308,191.565
     24.52550578,54.58730978,194.991
     24.52552724,54.58731589,194.610
     24.52554687,54.58732332,194.547
     24.52556622,54.58733022,194.846
     24.52558354,54.58733706,193.946
     24.52560176,54.58734291,195.010
     24.52562403,54.58735100,195.454
     24.52563751,54.58735776,195.300
     24.52564790,54.58736272,194.432
     24.52565972,54.58737121,194.528
     24.52567642,54.58737926,194.082
     24.52569549,54.58738550,194.001
     24.52571458,54.58739164,194.075
     24.52573269,54.58739739,194.413
     24.52575567,54.58740476,193.694
     24.52577104,54.58741406,192.906
     24.52578525,54.58742458,193.596
     24.52579871,54.58743457,193.742
     24.52580994,54.58744394,194.270
     24.52582311,54.58745453,194.460
     24.52583424,54.58746456,195.384
     24.52583826,54.58747391,195.745
     24.52583972,54.58748252,193.387
     24.52583769,54.58749369,193.853
     24.52583720,54.58750246,193.774
     24.52583567,54.58751332,195.012
     24.52583328,54.58752060,193.214
     24.52582739,54.58752839,193.545
     24.52582199,54.58753494,191.265
     24.52581053,54.58754555,190.905
     24.52579924,54.58755991,190.335
     24.52579093,54.58757036,192.494
     24.52577822,54.58758062,192.571
     24.52578142,54.58758232,193.544
     24.52578352,54.58758116,192.854
     24.52576731,54.58758764,192.909
     24.52574231,54.58759585,193.079
     24.52571968,54.58760216,191.360
     24.52569747,54.58760763,190.223
     24.52567624,54.58761285,190.089
     24.52565317,54.58761675,189.834
     24.52563067,54.58761922,189.757
     24.52560536,54.58762139,189.113
     24.52557622,54.58762314,188.824
     24.52554681,54.58762263,189.262
     24.52552195,54.58761931,189.757
     24.52549775,54.58761689,189.700
     24.52547086,54.58761366,189.389
     24.52544615,54.58760919,188.646
     24.52542384,54.58760555,187.506
     24.52540546,54.58760167,188.061
     24.52538981,54.58759593,185.636
     24.52537009,54.58758647,185.973
     24.52535894,54.58757749,186.640
     24.52534892,54.58756898,185.470
     24.52533443,54.58756053,184.634
     24.52532070,54.58755424,184.950
     24.52530648,54.58754844,184.003
     24.52528959,54.58754399,185.406
     24.52527381,54.58754004,185.022
     24.52525745,54.58753512,184.447
     24.52523945,54.58752882,184.313
     24.52521893,54.58752133,184.679
     24.52520190,54.58751447,184.736
     24.52518258,54.58750778,185.246
     24.52516002,54.58750028,185.024
     24.52514761,54.58749409,184.678
     24.52513365,54.58748668,184.762
     24.52511934,54.58748193,183.531
     24.52510730,54.58748024,185.157
     24.52509477,54.58748001,185.721
     24.52508222,54.58747476,188.327
     24.52506648,54.58746900,188.420
     24.52505445,54.58746410,187.670
     24.52504239,54.58746043,187.730
     24.52502682,54.58745621,187.268
     24.52500972,54.58745370,187.309
     24.52500440,54.58745310,185.008
     24.52500111,54.58744969,183.839
     24.52499221,54.58744297,181.489
     24.52497854,54.58743713,181.387
     24.52496575,54.58743164,183.216
     24.52494970,54.58742365,182.732
     24.52492723,54.58741221,183.280
     24.52490435,54.58740069,185.775
     24.52489455,54.58739520,181.765
     24.52488079,54.58739112,181.234
     24.52486541,54.58738419,181.897
     24.52484840,54.58737474,181.620
     24.52482936,54.58736403,181.988
     24.52480592,54.58735419,181.596
     24.52478189,54.58734514,181.467
     24.52476083,54.58733748,181.812
     24.52474027,54.58732861,182.871
     24.52472171,54.58732048,183.214
     24.52470732,54.58731572,182.298
     24.52469536,54.58731124,182.149
     24.52467597,54.58730237,181.563
     24.52465370,54.58729163,180.974
     24.52463243,54.58728034,180.683
     24.52461247,54.58726939,181.585
     24.52459367,54.58725829,181.501
     24.52457391,54.58724547,181.714
     24.52455493,54.58723190,181.057
     24.52454129,54.58721857,178.718
     24.52453036,54.58720383,178.841
     24.52452098,54.58718936,179.667
     24.52451386,54.58717537,179.208
     24.52450809,54.58716061,179.768
     24.52450445,54.58714738,179.075
     24.52450505,54.58713541,179.694
     24.52450698,54.58712089,179.259
     24.52450894,54.58710561,179.205
     24.52451415,54.58709118,178.831
     24.52452047,54.58707469,178.484
     24.52452650,54.58705972,178.659
     24.52452860,54.58704902,178.833
     24.52453257,54.58704062,184.400
     24.52453919,54.58702842,184.364
     24.52454783,54.58701449,184.788
     24.52455530,54.58700282,183.508
     24.52456191,54.58699216,183.154
     24.52457020,54.58698266,181.652
     24.52458403,54.58697234,179.418
     24.52459873,54.58696347,179.367
     24.52461593,54.58695217,181.903
     24.52463037,54.58694042,181.958
     24.52464339,54.58692820,182.811
     24.52465867,54.58691605,181.870
     24.52467475,54.58690617,182.507
     24.52469018,54.58689726,181.972
     24.52470645,54.58688979,182.427
     24.52472230,54.58688095,181.708
     24.52473603,54.58687297,182.269
     24.52474941,54.58686476,180.945
     24.52476475,54.58685517,180.056
     24.52478096,54.58684507,179.600
     24.52479673,54.58683431,178.438
     24.52481322,54.58682401,178.355
     24.52482926,54.58681467,179.569
     24.52484486,54.58680488,179.325
     24.52485944,54.58679514,179.014
     24.52487532,54.58678502,178.880
     24.52488919,54.58677511,179.344
     24.52490104,54.58676485,179.656
     24.52491471,54.58675050,179.352
     24.52493033,54.58673371,178.392
     24.52494319,54.58672161,181.107
     24.52495011,54.58671172,181.991
     24.52496082,54.58669973,183.241
     24.52497481,54.58668524,184.539
     24.52498512,54.58667232,183.721
     24.52499175,54.58666118,182.868
     24.52500134,54.58664536,183.003
     24.52500491,54.58663164,183.194
     24.52501291,54.58661929,182.411
     24.52501788,54.58660762,181.823
     24.52502312,54.58659564,182.421
     24.52502730,54.58658327,182.573
     24.52503159,54.58657109,184.494
     24.52503323,54.58655893,185.270
     24.52503463,54.58654698,184.589
     24.52503736,54.58653460,184.867
     24.52503931,54.58652096,184.688
     24.52504147,54.58650771,185.623
     24.52504229,54.58649613,185.122
     24.52504085,54.58648446,185.755
     24.52504076,54.58647185,186.263
     24.52504119,54.58645685,186.188
     24.52504021,54.58644487,186.673
     24.52503910,54.58643582,184.282
     24.52503491,54.58642314,182.316
     24.52502687,54.58641237,181.709
     24.52501930,54.58640342,180.950
     24.52501185,54.58639353,182.328
     24.52500467,54.58638387,179.692
     24.52499606,54.58637380,179.898
     24.52498766,54.58636271,179.573
     24.52498011,54.58635123,179.701
     24.52497178,54.58633733,179.998
     24.52495951,54.58632588,180.254
     24.52494933,54.58631964,180.523
     24.52493600,54.58631355,180.876
     24.52492073,54.58630537,180.272
     24.52490504,54.58629520,179.729
     24.52489459,54.58628522,180.933
     24.52487461,54.58627850,183.499
     24.52485121,54.58627343,183.417
     24.52483368,54.58627143,183.745
     24.52481659,54.58626854,183.710
     24.52480045,54.58626310,183.606
     24.52477336,54.58626003,185.688
     24.52474540,54.58625874,185.623
     24.52472462,54.58625987,183.576
     24.52470717,54.58625829,183.698
     24.52468893,54.58625828,184.647
     24.52466785,54.58625880,186.196
     24.52464376,54.58626122,186.436
     24.52461890,54.58626535,187.372
     24.52459643,54.58626865,187.544
     24.52457447,54.58627106,185.867
     24.52455324,54.58627302,186.160
     24.52453028,54.58627726,186.196
     24.52451033,54.58628105,186.537
     24.52448911,54.58628503,186.457
     24.52446724,54.58628837,186.824
     24.52445139,54.58629101,186.712
     24.52443311,54.58629485,187.475
     24.52440991,54.58629800,188.097
     24.52439350,54.58629891,187.714
     24.52437606,54.58629662,186.994
     24.52435885,54.58629108,187.997
     24.52434419,54.58628546,187.721
     24.52432840,54.58628069,187.836
     24.52431106,54.58627540,189.580
     24.52429551,54.58626725,190.866
     24.52428348,54.58625752,190.317
     24.52427174,54.58624855,192.615
     24.52425809,54.58624155,195.478
     24.52424620,54.58623227,196.347
     24.52423668,54.58622364,198.277
     24.52422887,54.58621661,197.764
     24.52421916,54.58621009,197.640
     24.52421013,54.58620080,198.256
     24.52419750,54.58619406,197.042
     24.52418947,54.58618621,197.342
     24.52418154,54.58617405,197.626
     24.52417613,54.58616030,196.211
     24.52417534,54.58614525,194.826
     24.52417768,54.58612801,194.248
     24.52418338,54.58611394,195.013
     24.52419506,54.58609951,196.972
     24.52420920,54.58608690,198.452
     24.52422386,54.58607581,198.627
     24.52423899,54.58606539,199.966
     24.52425620,54.58605424,199.964
     24.52427660,54.58604256,199.875
     24.52430198,54.58603174,200.563
     24.52432851,54.58602329,200.218
     24.52435213,54.58601602,199.143
     24.52437629,54.58600942,198.323
     24.52440021,54.58600372,197.961
     24.52442469,54.58600008,197.021
     24.52444776,54.58599771,196.242
     24.52446748,54.58599381,195.946
     24.52449056,54.58599129,196.575
     24.52451913,54.58598786,198.431
     24.52454758,54.58598421,198.626
     24.52456934,54.58598304,197.863
     24.52459320,54.58598370,199.195
     24.52461281,54.58598309,198.060
     24.52462697,54.58598225,198.170
     24.52464003,54.58598235,198.875
     24.52465621,54.58598624,199.294
     24.52467284,54.58599153,198.944
     24.52469255,54.58599406,199.498
     24.52471410,54.58599621,201.520
     24.52473459,54.58600039,201.896
     24.52475475,54.58600864,202.258
     24.52477696,54.58602010,201.687
     24.52479679,54.58603244,202.497
     24.52481363,54.58604316,201.877
     24.52482778,54.58604939,199.616
     24.52484556,54.58605460,199.743
     24.52486261,54.58605781,197.996
     24.52488242,54.58606383,198.414
     24.52489391,54.58606847,197.209
     24.52489987,54.58607297,196.139
     24.52490968,54.58607928,195.523
     24.52492238,54.58608582,195.633
     24.52493970,54.58609153,195.430
     24.52495485,54.58609328,197.698
     24.52497249,54.58609127,197.182
     24.52499481,54.58608799,198.672
     24.52501145,54.58608717,198.693
     24.52502578,54.58608206,197.930
     24.52504159,54.58607763,198.089
     24.52505190,54.58607374,196.009
     24.52506626,54.58606905,194.821
     24.52507754,54.58605814,193.525
     24.52507964,54.58604514,191.932
     24.52508074,54.58603829,192.060
     24.52508176,54.58603037,191.590
     24.52508142,54.58602189,191.168
     24.52508186,54.58601331,190.317
     24.52507767,54.58600417,191.026
     24.52506706,54.58599433,190.557
     24.52504948,54.58598700,192.993
     24.52502706,54.58598033,192.548
     24.52500406,54.58597417,192.687
     24.52498106,54.58596712,192.150
     24.52496023,54.58595928,191.936
     24.52494136,54.58595194,191.630
     24.52492380,54.58594321,190.312
     24.52490964,54.58593510,190.211
     24.52490069,54.58592736,190.608
     24.52489439,54.58591886,190.401
     24.52488934,54.58591077,187.826
     24.52488402,54.58590061,185.064
     24.52487993,54.58588758,185.939
     24.52488093,54.58587553,187.582
     24.52489047,54.58586143,188.313
     24.52490370,54.58584805,190.477
     24.52492046,54.58583787,191.004
     24.52493402,54.58582894,192.565
     24.52495400,54.58581996,192.480
     24.52497764,54.58581109,193.056
     24.52499784,54.58580429,192.111
     24.52501957,54.58579736,191.663
     24.52504276,54.58579152,191.633
     24.52506535,54.58578872,192.829
     24.52508797,54.58578680,193.003
     24.52510414,54.58578710,193.520
     24.52511831,54.58578652,193.117
     24.52514035,54.58578512,193.102
     24.52516914,54.58578226,194.326
     24.52519243,54.58577544,195.049
     24.52521424,54.58576901,197.982
     24.52523658,54.58576032,199.420
     24.52525944,54.58575319,199.495
     24.52528247,54.58574904,198.339
     24.52530609,54.58574323,197.938
     24.52532743,54.58573593,196.110
     24.52535129,54.58572816,194.745
     24.52537579,54.58572120,193.559
     24.52540325,54.58571298,194.713
     24.52542708,54.58570493,195.305
     24.52544811,54.58569692,195.224
     24.52546926,54.58568841,195.099
     24.52548591,54.58567902,192.870
     24.52549821,54.58566978,192.734
     24.52551108,54.58565902,192.468
     24.52552272,54.58564840,192.078
     24.52553458,54.58563839,191.758
     24.52554536,54.58562792,191.773
     24.52555713,54.58561734,191.115
     24.52556498,54.58560854,191.182
     24.52557510,54.58559849,191.384
     24.52558832,54.58558899,191.175
     24.52560071,54.58558039,191.024
     24.52561422,54.58557106,191.588
     24.52562588,54.58556036,191.272
     24.52563506,54.58554903,191.077
     24.52564408,54.58553750,191.501
     24.52565376,54.58552662,190.639
     24.52566376,54.58551757,192.609
     24.52567682,54.58550781,193.636
     24.52569327,54.58549816,193.154
     24.52570926,54.58548906,193.109
     24.52572538,54.58548162,190.602
     24.52574106,54.58547599,190.218
     24.52575817,54.58547136,189.456
     24.52577685,54.58546739,189.422
     24.52579925,54.58546397,189.348
     24.52582329,54.58546100,189.317
     24.52583172,54.58546180,188.635
     24.52584916,54.58546280,188.460
     24.52587517,54.58546556,188.231
     24.52589621,54.58547209,186.590
     24.52592050,54.58548265,186.176
     24.52593076,54.58548697,187.648
     24.52594805,54.58549339,187.696
     24.52596874,54.58549954,186.891
     24.52598713,54.58550508,185.380
     24.52600178,54.58550814,184.730
     24.52601585,54.58551215,184.699
     24.52603151,54.58551485,185.036
     24.52604673,54.58551487,185.092
     24.52606544,54.58551675,185.103
     24.52608544,54.58551884,187.703
     24.52610853,54.58552166,187.570
     24.52613303,54.58552287,187.543
     24.52615967,54.58552326,187.750
     24.52618334,54.58552481,186.594
     24.52620412,54.58552497,186.064
     24.52622388,54.58552723,186.810
     24.52624146,54.58552707,186.718
     24.52625846,54.58552387,186.686
     24.52627701,54.58551861,187.092
     24.52629616,54.58551261,189.481
     24.52631240,54.58550604,190.212
     24.52633362,54.58550028,191.317
     24.52634866,54.58548903,189.197
     24.52636374,54.58547766,188.803
     24.52637501,54.58546484,188.200
     24.52638113,54.58545405,188.157
     24.52638443,54.58544072,186.863
     24.52638634,54.58542737,187.635
     24.52638739,54.58541296,187.456
     24.52638834,54.58539708,187.644
     24.52638970,54.58537953,187.657
     24.52638699,54.58536629,188.415
     24.52638301,54.58535366,189.279
     24.52637963,54.58534174,188.639
     24.52637747,54.58533232,188.236
     24.52637494,54.58532228,190.717
     24.52637538,54.58531382,191.203
     24.52637687,54.58530416,191.071
     24.52637886,54.58529439,192.946
     24.52637663,54.58528778,192.949
     24.52637840,54.58528364,193.208
     24.52638595,54.58527379,195.646
     24.52639718,54.58526153,195.296
     24.52640972,54.58524950,194.252
     24.52642299,54.58523895,193.714
     24.52643786,54.58522854,194.000
     24.52645431,54.58521835,193.693
     24.52647041,54.58520839,193.503
     24.52648820,54.58520053,192.838
     24.52650176,54.58519318,192.676
     24.52651905,54.58518659,193.185
     24.52653626,54.58518188,193.594
     24.52655470,54.58517676,193.593
     24.52657239,54.58517182,193.568
     24.52657966,54.58516956,194.004
     24.52658394,54.58516814,194.324
     24.52658276,54.58516685,193.797
     24.52658172,54.58516489,194.776
     24.52658817,54.58516322,194.804
     24.52659633,54.58515919,196.674
     24.52661535,54.58515377,196.236
     24.52664229,54.58514801,194.848
     24.52666672,54.58514372,194.022
     24.52668400,54.58514034,193.748
     24.52670961,54.58513716,192.503
     24.52672039,54.58513255,192.325
     24.52673429,54.58513572,193.154
     24.52675710,54.58513889,194.204
     24.52677951,54.58514318,194.368
     24.52680807,54.58514935,194.037
     24.52683152,54.58515084,192.721
     24.52685084,54.58515299,190.335
     24.52687228,54.58515557,189.596
     24.52688832,54.58515957,190.377
     24.52690174,54.58516362,192.134
     24.52691496,54.58516816,191.424
     24.52693511,54.58517586,190.548
     24.52695692,54.58518577,191.176
     24.52697635,54.58519752,190.454
     24.52700032,54.58520991,190.012
     24.52701994,54.58522180,189.659
     24.52703992,54.58523339,189.747
     24.52705838,54.58524397,190.039
     24.52706905,54.58525100,191.964
     24.52708582,54.58525560,192.114
     24.52710267,54.58526312,193.462
     24.52711629,54.58527216,195.546
     24.52712885,54.58528442,196.969
     24.52712891,54.58530394,198.628
     24.52712539,54.58532340,199.587
     24.52711919,54.58533902,198.971
     24.52711388,54.58535288,198.556
     24.52711110,54.58536711,198.551
     24.52711250,54.58537801,198.660
     24.52711726,54.58538859,199.736
     24.52712572,54.58539956,199.138
     24.52713533,54.58540844,198.177
     24.52714605,54.58541662,196.326
     24.52715419,54.58542483,196.842
     24.52715958,54.58543138,197.636
     24.52716322,54.58543518,196.152
     24.52717153,54.58543135,194.209
     24.52717622,54.58542961,194.040
     24.52717870,54.58542799,193.391
     24.52718100,54.58542608,193.270
     24.52718526,54.58542522,192.032
    </coordinates>
   </LineString>
  </Placemark>

 </Document>
</kml>
 